ONEWEB-0113             
1 48050U 21025J   23001.85764687  .00000137  00000+0  33981-3 0  9991
2 48050  87.9025 211.0835 0001736  88.2212 271.9116 13.13473051 87875
ONEWEB-0112             
1 48051U 21025K   23001.99731150 -.00002350  00000+0 -64713-2 0  9993
2 48051  87.9020 211.0155 0001513  87.3370 272.7933 13.13479223 87912
ONEWEB-0156             
1 48052U 21025L   23002.00789834  .00000313  00000+0  82329-3 0  9998
2 48052  87.9022 211.0358 0001505  87.2392 272.8909 13.13472493 87897
ONEWEB-0161             
1 48053U 21025M   23001.98037250 -.00000223  00000+0 -64447-3 0  9996
2 48053  87.9026 211.0231 0001323  81.4894 278.6385 13.13472003 87825
ONEWEB-0158             
1 48054U 21025N   23001.86823142  .00000305  00000+0  79937-3 0  9996
2 48054  87.9026 211.0712 0001863  91.9171 268.2171 13.13471735 87923
ONEWEB-0157             
1 48055U 21025P   23002.04386014  .00000079  00000+0  18051-3 0  9998
2 48055  87.9050 210.9963 0001219  81.9419 278.1849 13.13468571 87898
ONEWEB-0162             
1 48056U 21025Q   23002.00578146 -.00000020  00000+0 -89630-4 0  9994
2 48056  87.9020 211.0138 0001474  89.8742 270.2556 13.13471187 87830
ONEWEB-0155             
1 48057U 21025R   23001.87458470  .00000368  00000+0  97336-3 0  9990
2 48057  87.9105 211.0404 0001502  83.9122 276.2179 13.13467971 87978
ONEWEB-0149             
1 48058U 21025S   23002.04808818  .00000033  00000+0  55582-4 0  9993
2 48058  87.9020 211.0073 0001234 103.9362 256.1905 13.13469537 87815
ONEWEB-0148             
1 48059U 21025T   23002.01212506  .00000240  00000+0  62287-3 0  9993
2 48059  87.9022 211.0194 0000741 110.2108 249.9101 13.13470742 87923
ONEWEB-0160             
1 48060U 21025U   23001.87670145  .00000339  00000+0  89405-3 0  9995
2 48060  87.9022 211.0449 0002570 100.3469 259.7950 13.13471428 87855
ONEWEB-0163             
1 48061U 21025V   23001.86187355  .00000249  00000+0  64604-3 0  9995
2 48061  87.8957 211.0489 0001200  70.8418 289.2841 13.13472470 87989
ONEWEB-0159             
1 48062U 21025W   23001.85131201  .00000017  00000+0  11548-4 0  9997
2 48062  87.9026 211.0548 0001061  77.0699 283.0548 13.13472272 87895
ONEWEB-0164             
1 48063U 21025X   23001.98462079 -.00000242  00000+0 -69737-3 0  9996
2 48063  87.8936 211.0246 0001762  78.7833 281.3494 13.13468676 87902
ONEWEB-0167             
1 48064U 21025Y   23002.01527669 -.00000031  00000+0 -11879-3 0  9999
2 48064  87.9049 211.0036 0001157  78.5160 281.6099 13.13469765 87886
ONEWEB-0166             
1 48065U 21025Z   23002.03751294  .00000288  00000+0  75469-3 0  9992
2 48065  87.9020 211.0082 0001219  90.5665 269.5604 13.13469348 87963
ONEWEB-0151             
1 48066U 21025AA  23001.81110132  .00000104  00000+0  24890-3 0  9997
2 48066  87.9022 211.0539 0001740  79.7451 280.3874 13.13468445 87871
ONEWEB-0170             
1 48067U 21025AB  23002.04600019  .00000287  00000+0  75001-3 0  9994
2 48067  87.8960 211.0239 0002353  82.5069 277.6327 13.13470093 87860
ONEWEB-0168             
1 48068U 21025AC  23001.80264732  .00000288  00000+0  75247-3 0  9999
2 48068  87.9026 211.0879 0001376  86.3465 273.7821 13.13468870 87845
ONEWEB-0173             
1 48069U 21025AD  23002.02482124  .00000412  00000+0  10941-2 0  9990
2 48069  87.9027 211.0557 0001522  63.3088 296.8197 13.13472648 88110
ONEWEB-0171             
1 48070U 21025AE  23001.98248417 -.00000525  00000+0 -14732-2 0  9990
2 48070  87.9028 211.0228 0001295  87.2540 272.8737 13.13468672 87927
ONEWEB-0172             
1 48071U 21025AF  23002.04070281  .00000175  00000+0  44336-3 0  9994
2 48071  87.8984 211.0229 0001633  70.5113 289.6192 13.13469092 88824
ONEWEB-0174             
1 48072U 21025AG  23002.02271240  .00000810  00000+0  21819-2 0  9997
2 48072  87.9013 211.0276 0001044 110.2718 249.8524 13.13470948 88144
ONEWEB-0175             
1 48073U 21025AH  23002.05020682 -.00000005  00000+0 -48073-4 0  9994
2 48073  87.9019 211.0045 0001985  77.7682 282.3669 13.13468654 87801
ONEWEB-0177             
1 48074U 21025AJ  23001.98673788 -.00000248  00000+0 -71521-3 0  9999
2 48074  87.8977 211.0301 0001160  60.4539 299.6706 13.13470685 87983
ONEWEB-0178             
1 48075U 21025AK  23002.00470358 -.00000028  00000+0 -11236-3 0  9995
2 48075  87.9022 211.0172 0001252  78.3538 281.7731 13.13474200 88035
ONEWEB-0108             
1 48076U 21025AL  23001.81321961  .00000030  00000+0  47377-4 0  9996
2 48076  87.9021 211.0527 0001526  96.4248 263.7055 13.13468494 87937
ONEWEB-0169             
1 48077U 21025AM  23001.99519886 -.00000204  00000+0 -59479-3 0  9991
2 48077  87.8954 211.0234 0001405 101.9674 258.1613 13.13470819 87851
ONEWEB-0176             
1 48210U 21031A   23001.76475274 -.00000060  00000+0 -19495-3 0  9998
2 48210  87.9076 180.7618 0001361  86.3123 273.8162 13.14504481 82469
ONEWEB-0184             
1 48211U 21031B   23001.89160538 -.00000225  00000+0 -64267-3 0  9997
2 48211  87.9081 180.7098 0002533  68.6309 291.5091 13.14505388 82453
ONEWEB-0179             
1 48212U 21031C   23001.78375983  .00000236  00000+0  60122-3 0  9994
2 48212  87.9078 180.7305 0001145  82.2487 277.8772 13.14505312 82481
ONEWEB-0180             
1 48213U 21031D   23001.89372555 -.00000163  00000+0 -47464-3 0  9994
2 48213  87.9081 180.7051 0001241  89.1876 270.9395 13.14501367 82389
ONEWEB-0218             
1 48214U 21031E   23001.76262781 -.00000051  00000+0 -17241-3 0  9996
2 48214  87.9076 180.7416 0002280  55.3870 304.7474 13.14504493 82525
ONEWEB-0209             
1 48215U 21031F   23001.75206161 -.00000219  00000+0 -62648-3 0  9993
2 48215  87.9080 180.7738 0001289  87.4036 272.7241 13.14501138 82525
ONEWEB-0198             
1 48216U 21031G   23001.73725279 -.00000185  00000+0 -53225-3 0  9991
2 48216  87.9082 180.7883 0001535  65.6266 294.5024 13.14501213 82633
ONEWEB-0189             
1 48217U 21031H   23001.90217232 -.00000445  00000+0 -12350-2 0  9998
2 48217  87.9077 180.7425 0001413  66.0094 294.1184 13.14502579 82391
ONEWEB-0196             
1 48218U 21031J   23001.72879862  .00000030  00000+0  46581-4 0  9995
2 48218  87.9082 180.7611 0001575  85.4523 274.6787 13.14505585 82376
ONEWEB-0183             
1 48219U 21031K   23001.77743303  .00000161  00000+0  40016-3 0  9992
2 48219  87.9081 180.7711 0001329  93.7188 266.4094 13.14501774 82470
ONEWEB-0185             
1 48220U 21031L   23001.72986722  .00003698  00000+0  99390-2 0  9999
2 48220  87.9081 180.7575 0001393  89.9103 270.2187 13.14487246 82399
ONEWEB-0187             
1 48221U 21031M   23001.78060577  .00000209  00000+0  52930-3 0  9992
2 48221  87.9081 180.7720 0001243  89.3969 270.7304 13.14499097 82416
ONEWEB-0192             
1 48222U 21031N   23001.90640907 -.00000146  00000+0 -42717-3 0  9992
2 48222  87.9080 180.6933 0001563  81.2479 278.8828 13.14500738 82340
ONEWEB-0219             
1 48223U 21031P   23001.73513570 -.00000102  00000+0 -30893-3 0  9993
2 48223  87.9080 180.7653 0001234  89.4707 270.6564 13.14504219 82525
ONEWEB-0202             
1 48224U 21031Q   23001.79010044  .00000279  00000+0  71710-3 0  9994
2 48224  87.9080 180.7714 0001920  50.4487 309.6812 13.14505514 82516
ONEWEB-0204             
1 48225U 21031R   23001.77427413  .00000160  00000+0  39578-3 0  9990
2 48225  87.9079 180.8000 0001781 111.6217 248.5103 13.14502781 82405
ONEWEB-0205             
1 48226U 21031S   23001.72456472  .00000089  00000+0  20622-3 0  9993
2 48226  87.9082 180.7636 0001358  75.4051 284.7229 13.14500077 82415
ONEWEB-0206             
1 48227U 21031T   23001.77320681  .00000160  00000+0  39795-3 0  9992
2 48227  87.9079 180.7402 0001144  94.8764 265.2496 13.14503245 82377
ONEWEB-0182             
1 48228U 21031U   23001.76686441  .00000005  00000+0 -21909-4 0  9999
2 48228  87.9081 180.8155 0001187  89.9423 270.1843 13.14503878 82587
ONEWEB-0186             
1 48229U 21031V   23001.77954196  .00000223  00000+0  56588-3 0  9997
2 48229  87.9080 180.7254 0001332  82.4643 277.6638 13.14504787 82539
ONEWEB-0181             
1 48230U 21031W   23001.90852573 -.00000154  00000+0 -44933-3 0  9996
2 48230  87.9082 180.7686 0001523  84.6530 275.4773 13.14501774 82408
ONEWEB-0188             
1 48231U 21031X   23001.79645123 -.00001996  00000+0 -54181-2 0  9995
2 48231  87.9074 180.7919 0001323  92.6544 267.4737 13.14511438 82297
ONEWEB-0220             
1 48232U 21031Y   23001.91062848 -.00000144  00000+0 -42322-3 0  9996
2 48232  87.9084 180.7281 0001038  84.5070 275.6178 13.14505485 82574
ONEWEB-0165             
1 48233U 21031Z   23001.78801245  .00000282  00000+0  72676-3 0  9990
2 48233  87.9081 180.7750 0001273  81.0963 279.0310 13.14502765 82515
ONEWEB-0199             
1 48234U 21031AA  23001.77108836  .00000097  00000+0  22648-3 0  9994
2 48234  87.9079 180.7537 0001320  85.5318 274.5963 13.14500707 82419
ONEWEB-0203             
1 48235U 21031AB  23001.91275445 -.00000099  00000+0 -30208-3 0  9997
2 48235  87.9081 180.7216 0001948  85.2763 274.8589 13.14501030 82444
ONEWEB-0197             
1 48236U 21031AC  23001.90005659 -.00000442  00000+0 -12265-2 0  9999
2 48236  87.9079 180.7336 0001452  86.8586 273.2710 13.14502221 82357
ONEWEB-0194             
1 48237U 21031AD  23001.79222897  .00000379  00000+0  98715-3 0  9994
2 48237  87.9081 180.7448 0001952  93.2788 266.8565 13.14506304 82516
ONEWEB-0193             
1 48238U 21031AE  23001.73302471 -.00000034  00000+0 -12596-3 0  9999
2 48238  87.9081 180.7672 0001608  81.3802 278.7510 13.14501241 82459
ONEWEB-0191             
1 48239U 21031AF  23001.74360258 -.00000130  00000+0 -38540-3 0  9992
2 48239  87.9079 180.7462 0001673  88.1182 272.0139 13.14501831 82316
ONEWEB-0195             
1 48240U 21031AG  23001.72140628  .00000191  00000+0  48046-3 0  9996
2 48240  87.9083 180.7451 0001442  69.4278 290.7006 13.14505824 82296
